*******************************************************************************
Ephemeris / WWW_USER Mon Jul 15 19:04:06 2024 Pasadena, USA      / Horizons    
*******************************************************************************
Target body name: (2018 RD5)                      {source: JPL#11}
Center body name: Earth (399)                     {source: DE441}
Center-site name: Gemini South Obs., Cerro Pachon
*******************************************************************************
Start time      : A.D. 2019-Jan-29 23:52:00.0000 UT      
Stop  time      : A.D. 2019-Jan-30 10:00:00.0000 UT      
Step-size       : 1 minutes
*******************************************************************************
Target pole/equ : undefined
Target radii    : undefined                                                    
Center geodetic : 289.2634, -30.2406227, 2.71233  {E-lon(deg),Lat(deg),Alt(km)}
Center cylindric: 289.2634,5517.21435,-3194.81213 {E-lon(deg),Dxy(km),Dz(km)}
Center pole/equ : ITRF93                          {East-longitude positive}
Center radii    : 6378.137, 6378.137, 6356.752 km {Equator_a, b, pole_c}       
Target primary  : Sun
Vis. interferer : MOON (R_eq= 1737.400) km        {source: DE441}
Rel. light bend : Sun                             {source: DE441}
Rel. lght bnd GM: 1.3271E+11 km^3/s^2                                          
Small-body perts: Yes                             {source: SB441-N16}
Atmos refraction: NO (AIRLESS)
RA format       : HMS
Time format     : CAL 
Calendar mode   : Mixed Julian/Gregorian
RTS-only print  : NO       
EOP file        : eop.240715.p241008                                           
EOP coverage    : DATA-BASED 1962-JAN-20 TO 2024-JUL-15. PREDICTS-> 2024-OCT-07
Units conversion: 1 au= 149597870.700 km, c= 299792.458 km/s, 1 day= 86400.0 s 
Table cut-offs 1: Elevation (-90.0deg=NO ),Airmass (>38.000=NO), Daylight (YES)
Table cut-offs 2: Solar elongation (  0.0,180.0=NO ),Local Hour Angle( 0.0=NO )
Table cut-offs 3: RA/DEC angular rate (     0.0=NO )                           
*******************************************************************************
Initial IAU76/J2000 heliocentric ecliptic osculating elements (au, days, deg.):
  EPOCH=  2458378.5 ! 2018-Sep-17.00 (TDB)         Residual RMS= .55339        
   EC= .2891632988519429   QR= 1.009650912138325   TP= 2458360.6433297051      
   OM= 171.0145363394364   W=  163.7983400129293   IN= 8.474307805886117       
  Equivalent ICRF heliocentric cartesian coordinates (au, au/d):
   X= 1.017757009008053E+00  Y=-8.967367621791844E-02  Z=-4.840656937149759E-02
  VX= 3.309922676318766E-03 VY= 1.832358809606965E-02 VZ= 4.854018792897502E-03
Asteroid physical parameters (km, seconds, rotational period in hours):        
   GM= n.a.                RAD= n.a.               ROTPER= n.a.                
   H= 25.9                 G= .150                 B-V= n.a.                   
                           ALBEDO= n.a.            STYP= n.a.                  
*******************************************************************************
 Date__(UT)__HR:MN     R.A._________(ICRF)_________DEC
******************************************************
$$SOE
 2019-Jan-30 08:04  m  03 52 59.506692 +06 09 38.21446
 2019-Jan-30 08:05  m  03 52 59.573827 +06 09 38.86209
 2019-Jan-30 08:06  m  03 52 59.640971 +06 09 39.50973
 2019-Jan-30 08:07  m  03 52 59.708124 +06 09 40.15737
 2019-Jan-30 08:08  m  03 52 59.775287 +06 09 40.80502
 2019-Jan-30 08:09  m  03 52 59.842459 +06 09 41.45267
 2019-Jan-30 08:10  m  03 52 59.909641 +06 09 42.10032
 2019-Jan-30 08:11  m  03 52 59.976832 +06 09 42.74798
 2019-Jan-30 08:12  m  03 53 00.044032 +06 09 43.39565
 2019-Jan-30 08:13  m  03 53 00.111242 +06 09 44.04332
 2019-Jan-30 08:14  m  03 53 00.178461 +06 09 44.69099
 2019-Jan-30 08:15  m  03 53 00.245689 +06 09 45.33867
 2019-Jan-30 08:16  m  03 53 00.312927 +06 09 45.98635
 2019-Jan-30 08:17  m  03 53 00.380174 +06 09 46.63404
 2019-Jan-30 08:18  m  03 53 00.447430 +06 09 47.28173
 2019-Jan-30 08:19  m  03 53 00.514695 +06 09 47.92942
 2019-Jan-30 08:20  m  03 53 00.581969 +06 09 48.57713
 2019-Jan-30 08:21  m  03 53 00.649253 +06 09 49.22483
 2019-Jan-30 08:22  m  03 53 00.716545 +06 09 49.87254
 2019-Jan-30 08:23  m  03 53 00.783847 +06 09 50.52026
 2019-Jan-30 08:24  m  03 53 00.851157 +06 09 51.16798
 2019-Jan-30 08:25  m  03 53 00.918477 +06 09 51.81571
 2019-Jan-30 08:26  m  03 53 00.985806 +06 09 52.46345
 2019-Jan-30 08:27  m  03 53 01.053143 +06 09 53.11118
 2019-Jan-30 08:28  m  03 53 01.120490 +06 09 53.75893
 2019-Jan-30 08:29  m  03 53 01.187845 +06 09 54.40668
 2019-Jan-30 08:30  m  03 53 01.255210 +06 09 55.05443
 2019-Jan-30 08:31  m  03 53 01.322583 +06 09 55.70219
 2019-Jan-30 08:32  m  03 53 01.389965 +06 09 56.34996
 2019-Jan-30 08:33  m  03 53 01.457355 +06 09 56.99773
 2019-Jan-30 08:34  m  03 53 01.524755 +06 09 57.64551
 2019-Jan-30 08:35  m  03 53 01.592163 +06 09 58.29329
 2019-Jan-30 08:36  m  03 53 01.659580 +06 09 58.94108
 2019-Jan-30 08:37  m  03 53 01.727006 +06 09 59.58888
 2019-Jan-30 08:38  m  03 53 01.794440 +06 10 00.23668
 2019-Jan-30 08:39  m  03 53 01.861883 +06 10 00.88449
 2019-Jan-30 08:40 Am  03 53 01.929334 +06 10 01.53230
 2019-Jan-30 08:41 Am  03 53 01.996794 +06 10 02.18012
 2019-Jan-30 08:42 Am  03 53 02.064263 +06 10 02.82795
 2019-Jan-30 08:43 Am  03 53 02.131740 +06 10 03.47578
 2019-Jan-30 08:44 Am  03 53 02.199225 +06 10 04.12362
 2019-Jan-30 08:45 Am  03 53 02.266719 +06 10 04.77147
 2019-Jan-30 08:46 Am  03 53 02.334221 +06 10 05.41932
 2019-Jan-30 08:47 Am  03 53 02.401732 +06 10 06.06718
 2019-Jan-30 08:48 Am  03 53 02.469251 +06 10 06.71505
 2019-Jan-30 08:49 Am  03 53 02.536778 +06 10 07.36292
 2019-Jan-30 08:50 Am  03 53 02.604314 +06 10 08.01080
 2019-Jan-30 08:51 Am  03 53 02.671858 +06 10 08.65868
 2019-Jan-30 08:52 Am  03 53 02.739410 +06 10 09.30658
 2019-Jan-30 08:53 Am  03 53 02.806970 +06 10 09.95448
 2019-Jan-30 08:54 Am  03 53 02.874538 +06 10 10.60238
 2019-Jan-30 08:55 Am  03 53 02.942114 +06 10 11.25030
 2019-Jan-30 08:56 Am  03 53 03.009699 +06 10 11.89822
 2019-Jan-30 08:57 Am  03 53 03.077291 +06 10 12.54615
 2019-Jan-30 08:58 Am  03 53 03.144892 +06 10 13.19408
 2019-Jan-30 08:59 Am  03 53 03.212501 +06 10 13.84202
 2019-Jan-30 09:00 Am  03 53 03.280117 +06 10 14.48997
 2019-Jan-30 09:01 Am  03 53 03.347741 +06 10 15.13793
 2019-Jan-30 09:02 Am  03 53 03.415374 +06 10 15.78589
 2019-Jan-30 09:03 Am  03 53 03.483014 +06 10 16.43387
 2019-Jan-30 09:04 Am  03 53 03.550662 +06 10 17.08185
 2019-Jan-30 09:05 Am  03 53 03.618318 +06 10 17.72983
 2019-Jan-30 09:06 Am  03 53 03.685981 +06 10 18.37783
 2019-Jan-30 09:07 Am  03 53 03.753652 +06 10 19.02583
 2019-Jan-30 09:08 Am  03 53 03.821331 +06 10 19.67384
 2019-Jan-30 09:09 Am  03 53 03.889018 +06 10 20.32186
 2019-Jan-30 09:10 Am  03 53 03.956712 +06 10 20.96988
 2019-Jan-30 09:11 Am  03 53 04.024414 +06 10 21.61792
 2019-Jan-30 09:12 Am  03 53 04.092123 +06 10 22.26596
 2019-Jan-30 09:13 Nm  03 53 04.159840 +06 10 22.91401
 2019-Jan-30 09:14 Nm  03 53 04.227564 +06 10 23.56206
 2019-Jan-30 09:15 Nm  03 53 04.295295 +06 10 24.21013
 2019-Jan-30 09:16 Nm  03 53 04.363034 +06 10 24.85820
 2019-Jan-30 09:17 Nm  03 53 04.430781 +06 10 25.50628
 2019-Jan-30 09:18 Nm  03 53 04.498535 +06 10 26.15437
 2019-Jan-30 09:19 Nm  03 53 04.566296 +06 10 26.80247
 2019-Jan-30 09:20 Nm  03 53 04.634064 +06 10 27.45058
 2019-Jan-30 09:21 Nm  03 53 04.701840 +06 10 28.09869
 2019-Jan-30 09:22 Nm  03 53 04.769622 +06 10 28.74682
 2019-Jan-30 09:23 Nm  03 53 04.837412 +06 10 29.39495
 2019-Jan-30 09:24 Nm  03 53 04.905209 +06 10 30.04309
 2019-Jan-30 09:25 Nm  03 53 04.973013 +06 10 30.69124
 2019-Jan-30 09:26 Nm  03 53 05.040824 +06 10 31.33940
 2019-Jan-30 09:27 Nm  03 53 05.108643 +06 10 31.98756
 2019-Jan-30 09:28 Nm  03 53 05.176468 +06 10 32.63574
 2019-Jan-30 09:29 Nm  03 53 05.244300 +06 10 33.28392
 2019-Jan-30 09:30 Nm  03 53 05.312139 +06 10 33.93211
 2019-Jan-30 09:31 Nm  03 53 05.379984 +06 10 34.58031
 2019-Jan-30 09:32 Nm  03 53 05.447837 +06 10 35.22852
 2019-Jan-30 09:33 Nm  03 53 05.515696 +06 10 35.87674
 2019-Jan-30 09:34 Nm  03 53 05.583562 +06 10 36.52497
 2019-Jan-30 09:35 Nm  03 53 05.651435 +06 10 37.17321
 2019-Jan-30 09:36 Nm  03 53 05.719315 +06 10 37.82145
 2019-Jan-30 09:37 Nm  03 53 05.787201 +06 10 38.46971
 2019-Jan-30 09:38 Nm  03 53 05.855094 +06 10 39.11797
 2019-Jan-30 09:39 Nm  03 53 05.922993 +06 10 39.76625
 2019-Jan-30 09:40 Nm  03 53 05.990899 +06 10 40.41453
 2019-Jan-30 09:41 Nm  03 53 06.058811 +06 10 41.06282
 2019-Jan-30 09:42 Nm  03 53 06.126730 +06 10 41.71112
 2019-Jan-30 09:43 Nm  03 53 06.194655 +06 10 42.35943
 2019-Jan-30 09:44 Cm  03 53 06.262586 +06 10 43.00775
 2019-Jan-30 09:45 Cm  03 53 06.330524 +06 10 43.65608
 2019-Jan-30 09:46 Cm  03 53 06.398468 +06 10 44.30442
 2019-Jan-30 09:47 Cm  03 53 06.466419 +06 10 44.95277
 2019-Jan-30 09:48 Cm  03 53 06.534375 +06 10 45.60113
 2019-Jan-30 09:49 Cm  03 53 06.602338 +06 10 46.24949
 2019-Jan-30 09:50 Cm  03 53 06.670307 +06 10 46.89787
 2019-Jan-30 09:51 Cm  03 53 06.738282 +06 10 47.54626
 2019-Jan-30 09:52 Cm  03 53 06.806263 +06 10 48.19466
 2019-Jan-30 09:53 Cm  03 53 06.874250 +06 10 48.84306
 2019-Jan-30 09:54 Cm  03 53 06.942243 +06 10 49.49148
 2019-Jan-30 09:55 Cm  03 53 07.010242 +06 10 50.13990
 2019-Jan-30 09:56 Cm  03 53 07.078247 +06 10 50.78834
 2019-Jan-30 09:57 Cm  03 53 07.146257 +06 10 51.43679
 2019-Jan-30 09:58 Cm  03 53 07.214274 +06 10 52.08524
 2019-Jan-30 09:59 Cm  03 53 07.282296 +06 10 52.73371
 2019-Jan-30 10:00 Cm  03 53 07.350324 +06 10 53.38218
